{"type": "FeatureCollection", "features": [ {"type": "Feature", "properties": {"norad_id": 35885, "name": "COSMOS 2251 DEB", "group": "cosmos-2251-debris", "lat": -40.01940403606218, "lon": -71.0815565190981, "alt_km": 766.2883280974738, "timestamp": "2025-12-08T08:59:01.163336+00:00", "meta": {"OBJECT_NAME": "COSMOS 2251 DEB", "OBJECT_ID": "1993-036ATY", "EPOCH": "2025-12-06T15:25:19.901280", "MEAN_MOTION": 14.37501399, "ECCENTRICITY": 0.0022973, "INCLINATION": 74.0277, "RA_OF_ASC_NODE": 306.0211, "ARG_OF_PERICENTER": 28.0952, "MEAN_ANOMALY": 332.1436, "EPHEMERIS_TYPE": 0, "CLASSIFICATION_TYPE": "U", "NORAD_CAT_ID": 35885, "ELEMENT_SET_NO": 999, "REV_AT_EPOCH": 64928, "BSTAR": 0.00059498548, "MEAN_MOTION_DOT": 1.761e-05, "MEAN_MOTION_DDOT": 0}, "tle": {"line1": "1 35885U 93036ATY 25340.64259145  .00001761  00000+0  59499-3 0  9993", "line2": "2 35885  74.0277 306.0211 0022973  28.0952 332.1436 14.37501399649283"}}, "geometry": {"type": "Point", "coordinates": [-71.0815565190981, -40.01940403606218]}}, {"type": "Feature", "properties": {"norad_id": 35888, "name": "COSMOS 2251 DEB", "group": "cosmos-2251-debris", "lat": -51.1785054091476, "lon": -15.864339393076092, "alt_km": 738.7163687686098, "timestamp": "2025-12-08T08:59:01.163346+00:00", "meta": {"OBJECT_NAME": "COSMOS 2251 DEB", "OBJECT_ID": "1993-036AUB", "EPOCH": "2025-12-06T19:21:56.006208", "MEAN_MOTION": 14.58288117, "ECCENTRICITY": 0.00484531, "INCLINATION": 74.0336, "RA_OF_ASC_NODE": 7.9609, "ARG_OF_PERICENTER": 141.8961, "MEAN_ANOMALY": 218.5647, "EPHEMERIS_TYPE": 0, "CLASSIFICATION_TYPE": "U", "NORAD_CAT_ID": 35888, "ELEMENT_SET_NO": 999, "REV_AT_EPOCH": 86187, "BSTAR": 0.00070859263, "MEAN_MOTION_DOT": 3.301e-05, "MEAN_MOTION_DDOT": 0}, "tle": {"line1": "1 35888U 93036AUB 25340.80689822  .00003301  00000+0  70859-3 0  9998", "line2": "2 35888  74.0336   7.9609 0048453 141.8961 218.5647 14.58288117861870"}}, "geometry": {"type": "Point", "coordinates": [-15.864339393076092, -51.1785054091476]}}, {"type": "Feature", "properties": {"norad_id": 35890, "name": "COSMOS 2251 DEB", "group": "cosmos-2251-debris", "lat": 1.4538697478568812, "lon": -108.53196714009277, "alt_km": 667.3989752208008, "timestamp": "2025-12-08T08:59:01.163356+00:00", "meta": {"OBJECT_NAME": "COSMOS 2251 DEB", "OBJECT_ID": "1993-036AUD", "EPOCH": "2025-12-06T10:50:49.757856", "MEAN_MOTION": 14.57318595, "ECCENTRICITY": 0.00535192, "INCLINATION": 73.9371, "RA_OF_ASC_NODE": 254.7224, "ARG_OF_PERICENTER": 20.2717, "MEAN_ANOMALY": 340.0554, "EPHEMERIS_TYPE": 0, "CLASSIFICATION_TYPE": "U", "NORAD_CAT_ID": 35890, "ELEMENT_SET_NO": 999, "REV_AT_EPOCH": 65059, "BSTAR": 0.0036493179, "MEAN_MOTION_DOT": 0.0001686, "MEAN_MOTION_DDOT": 0}, "tle": {"line1": "1 35890U 93036AUD 25340.45196479  .00016860  00000+0  36493-2 0  9992", "line2": "2 35890  73.9371 254.7224 0053519  20.2717 340.0554 14.57318595650599"}}, "geometry": {"type": "Point", "coordinates": [-108.53196714009277, 1.4538697478568812]}}, {"type": "Feature", "properties": {"norad_id": 35891, "name": "COSMOS 2251 DEB", "group": "cosmos-2251-debris", "lat": 28.35826774729549, "lon": -85.67985669471865, "alt_km": 462.39520678238205, "timestamp": "2025-12-08T08:59:01.163367+00:00", "meta": {"OBJECT_NAME": "COSMOS 2251 DEB", "OBJECT_ID": "1993-036AUE", "EPOCH": "2025-12-07T15:05:39.688512", "MEAN_MOTION": 15.32671371, "ECCENTRICITY": 0.00448916, "INCLINATION": 73.9888, "RA_OF_ASC_NODE": 104.8337, "ARG_OF_PERICENTER": 235.5945, "MEAN_ANOMALY": 124.1012, "EPHEMERIS_TYPE": 0, "CLASSIFICATION_TYPE": "U", "NORAD_CAT_ID": 35891, "ELEMENT_SET_NO": 999, "REV_AT_EPOCH": 67142, "BSTAR": 0.0020729594, "MEAN_MOTION_DOT": 0.00068094, "MEAN_MOTION_DDOT": 0}, "tle": {"line1": "1 35891U 93036AUE 25341.62893158  .00068094  00000+0  20730-2 0  9994", "line2": "2 35891  73.9888 104.8337 0044891 235.5945 124.1012 15.32671371671423"}}, "geometry": {"type": "Point", "coordinates": [-85.67985669471865, 28.35826774729549]}}, {"type": "Feature", "properties": {"norad_id": 35895, "name": "COSMOS 2251 DEB", "group": "cosmos-2251-debris", "lat": 9.285190861381599, "lon": -2.0824129500286195, "alt_km": 874.168931379324, "timestamp": "2025-12-08T08:59:01.163377+00:00", "meta": {"OBJECT_NAME": "COSMOS 2251 DEB", "OBJECT_ID": "1993-036AUJ", "EPOCH": "2025-12-07T07:14:26.762496", "MEAN_MOTION": 14.01487367, "ECCENTRICITY": 0.0198387, "INCLINATION": 74.0487, "RA_OF_ASC_NODE": 357.0973, "ARG_OF_PERICENTER": 96.746, "MEAN_ANOMALY": 265.6293, "EPHEMERIS_TYPE": 0, "CLASSIFICATION_TYPE": "U", "NORAD_CAT_ID": 35895, "ELEMENT_SET_NO": 999, "REV_AT_EPOCH": 58936, "BSTAR": 0.0023068706, "MEAN_MOTION_DOT": 4.118e-05, "MEAN_MOTION_DDOT": 0}, "tle": {"line1": "1 35895U 93036AUJ 25341.30169864  .00004118  00000+0  23069-2 0  9998", "line2": "2 35895  74.0487 357.0973 0198387  96.7460 265.6293 14.01487367589369"}}, "geometry": {"type": "Point", "coordinates": [-2.0824129500286195, 9.285190861381599]}}, {"type": "Feature", "properties": {"norad_id": 35898, "name": "COSMOS 2251 DEB", "group": "cosmos-2251-debris", "lat": -33.67410507236701, "lon": 137.3058500590292, "alt_km": 620.0983285274951, "timestamp": "2025-12-08T08:59:01.163388+00:00", "meta": {"OBJECT_NAME": "COSMOS 2251 DEB", "OBJECT_ID": "1993-036AUM", "EPOCH": "2025-12-07T04:47:26.153664", "MEAN_MOTION": 14.94573196, "ECCENTRICITY": 0.0079228, "INCLINATION": 73.9914, "RA_OF_ASC_NODE": 308.651, "ARG_OF_PERICENTER": 93.6703, "MEAN_ANOMALY": 282.8224, "EPHEMERIS_TYPE": 0, "CLASSIFICATION_TYPE": "U", "NORAD_CAT_ID": 35898, "ELEMENT_SET_NO": 999, "REV_AT_EPOCH": 66727, "BSTAR": 0.0011539651, "MEAN_MOTION_DOT": 0.00013273, "MEAN_MOTION_DDOT": 0}, "tle": {"line1": "1 35898U 93036AUM 25341.19960826  .00013273  00000+0  11540-2 0  9998", "line2": "2 35898  73.9914 308.6510 0079228  93.6703 282.8224 14.94573196667272"}}, "geometry": {"type": "Point", "coordinates": [137.3058500590292, -33.67410507236701]}}, {"type": "Feature", "properties": {"norad_id": 35901, "name": "COSMOS 2251 DEB", "group": "cosmos-2251-debris", "lat": 26.71777460476122, "lon": 40.14570244771539, "alt_km": 541.76972326333, "timestamp": "2025-12-08T08:59:01.163398+00:00", "meta": {"OBJECT_NAME": "COSMOS 2251 DEB", "OBJECT_ID": "1993-036AUQ", "EPOCH": "2025-12-07T10:36:21.692736", "MEAN_MOTION": 15.06319673, "ECCENTRICITY": 0.00066034, "INCLINATION": 74.0121, "RA_OF_ASC_NODE": 33.7639, "ARG_OF_PERICENTER": 0.5644, "MEAN_ANOMALY": 13.1472, "EPHEMERIS_TYPE": 0, "CLASSIFICATION_TYPE": "U", "NORAD_CAT_ID": 35901, "ELEMENT_SET_NO": 999, "REV_AT_EPOCH": 86047, "BSTAR": 0.0047775116, "MEAN_MOTION_DOT": 0.0007096, "MEAN_MOTION_DDOT": 0}, "tle": {"line1": "1 35901U 93036AUQ 25341.44191774  .00070960  00000+0  47775-2 0  9994", "line2": "2 35901  74.0121  33.7639 0006603   0.5644  13.1472 15.06319673860474"}}, "geometry": {"type": "Point", "coordinates": [40.14570244771539, 26.71777460476122]}}, {"type": "Feature", "properties": {"norad_id": 35902, "name": "COSMOS 2251 DEB", "group": "cosmos-2251-debris", "lat": 48.315446909960095, "lon": 43.68617875887236, "alt_km": 844.9947310789148, "timestamp": "2025-12-08T08:59:01.163409+00:00", "meta": {"OBJECT_NAME": "COSMOS 2251 DEB", "OBJECT_ID": "1993-036AUR", "EPOCH": "2025-12-07T23:58:19.658496", "MEAN_MOTION": 14.26862668, "ECCENTRICITY": 0.01019224, "INCLINATION": 73.9832, "RA_OF_ASC_NODE": 243.186, "ARG_OF_PERICENTER": 358.8404, "MEAN_ANOMALY": 1.2491, "EPHEMERIS_TYPE": 0, "CLASSIFICATION_TYPE": "U", "NORAD_CAT_ID": 35902, "ELEMENT_SET_NO": 999, "REV_AT_EPOCH": 61062, "BSTAR": 0.0016367935, "MEAN_MOTION_DOT": 4.172e-05, "MEAN_MOTION_DDOT": 0}, "tle": {"line1": "1 35902U 93036AUR 25341.99883864  .00004172  00000+0  16368-2 0  9999", "line2": "2 35902  73.9832 243.1860 0101922 358.8404   1.2491 14.26862668610625"}}, "geometry": {"type": "Point", "coordinates": [43.68617875887236, 48.315446909960095]}}, {"type": "Feature", "properties": {"norad_id": 35905, "name": "COSMOS 2251 DEB", "group": "cosmos-2251-debris", "lat": 28.750924948363433, "lon": -131.28677708373527, "alt_km": 567.3394645008057, "timestamp": "2025-12-08T08:59:01.163419+00:00", "meta": {"OBJECT_NAME": "COSMOS 2251 DEB", "OBJECT_ID": "1993-036AUU", "EPOCH": "2025-12-07T08:49:24.431232", "MEAN_MOTION": 14.98911662, "ECCENTRICITY": 0.00909894, "INCLINATION": 74.0317, "RA_OF_ASC_NODE": 221.7171, "ARG_OF_PERICENTER": 303.0017, "MEAN_ANOMALY": 56.2448, "EPHEMERIS_TYPE": 0, "CLASSIFICATION_TYPE": "U", "NORAD_CAT_ID": 35905, "ELEMENT_SET_NO": 999, "REV_AT_EPOCH": 88502, "BSTAR": 0.00087159571, "MEAN_MOTION_DOT": 0.00011465, "MEAN_MOTION_DDOT": 0}, "tle": {"line1": "1 35905U 93036AUU 25341.36764388  .00011465  00000+0  87160-3 0  9994", "line2": "2 35905  74.0317 221.7171 0090989 303.0017  56.2448 14.98911662885025"}}, "geometry": {"type": "Point", "coordinates": [-131.28677708373527, 28.750924948363433]}}, {"type": "Feature", "properties": {"norad_id": 35959, "name": "COSMOS 2251 DEB", "group": "cosmos-2251-debris", "lat": 71.61199698846336, "lon": 80.59070059521454, "alt_km": 762.4093182188408, "timestamp": "2025-12-08T08:59:01.163429+00:00", "meta": {"OBJECT_NAME": "COSMOS 2251 DEB", "OBJECT_ID": "1993-036AUZ", "EPOCH": "2025-12-07T15:46:58.747296", "MEAN_MOTION": 14.34130365, "ECCENTRICITY": 0.00213708, "INCLINATION": 74.0321, "RA_OF_ASC_NODE": 321.3677, "ARG_OF_PERICENTER": 43.4005, "MEAN_ANOMALY": 316.8825, "EPHEMERIS_TYPE": 0, "CLASSIFICATION_TYPE": "U", "NORAD_CAT_ID": 35959, "ELEMENT_SET_NO": 999, "REV_AT_EPOCH": 84855, "BSTAR": 0.00022538328, "MEAN_MOTION_DOT": 6.06e-06, "MEAN_MOTION_DDOT": 0}, "tle": {"line1": "1 35959U 93036AUZ 25341.65762439  .00000606  00000+0  22538-3 0  9993", "line2": "2 35959  74.0321 321.3677 0021370  43.4005 316.8825 14.34130365848551"}}, "geometry": {"type": "Point", "coordinates": [80.59070059521454, 71.61199698846336]}}]}